[{"OBJECT_NAME":"SITRO-AIS 18","OBJECT_ID":"2024-199BH","EPOCH":"2026-03-09T22:56:51.354816","MEAN_MOTION":14.97350577,"ECCENTRICITY":0.00069154,"INCLINATION":97.331,"RA_OF_ASC_NODE":274.6581,"ARG_OF_PERICENTER":53.7115,"MEAN_ANOMALY":306.4746,"EPHEMERIS_TYPE":0,"CLASSIFICATION_TYPE":"U","NORAD_CAT_ID":61790,"ELEMENT_SET_NO":999,"REV_AT_EPOCH":11718,"BSTAR":0.00032194999,"MEAN_MOTION_DOT":3.687e-5,"MEAN_MOTION_DDOT":0},{"OBJECT_NAME":"STARLINK-32558","OBJECT_ID":"2024-225G","EPOCH":"2026-03-09T22:57:39.963456","MEAN_MOTION":14.98337034,"ECCENTRICITY":0.00035819,"INCLINATION":70.0012,"RA_OF_ASC_NODE":163.8361,"ARG_OF_PERICENTER":277.1062,"MEAN_ANOMALY":82.969,"EPHEMERIS_TYPE":0,"CLASSIFICATION_TYPE":"U","NORAD_CAT_ID":62169,"ELEMENT_SET_NO":999,"REV_AT_EPOCH":6991,"BSTAR":0.00056610831,"MEAN_MOTION_DOT":6.67e-5,"MEAN_MOTION_DDOT":0}]
